{
  "type": "FeatureCollection",
  "features": [
    {
      "type": "Feature",
      "properties": {
        "norad_id": 50032,
        "name": "COSMOS 1408 DEB",
        "group": "cosmos-1408-debris",
        "lat": 46.070591532796485,
        "lon": -123.17959088588522,
        "alt_km": 427.1556775806539,
        "timestamp": "2025-12-06T18:50:10.438938+00:00",
        "meta_object_name": "COSMOS 1408 DEB",
        "meta_object_id": "1982-092RU",
        "meta_epoch": "2025-12-06T05:49:46.068384",
        "meta_mean_motion": 15.45595735,
        "meta_eccentricity": 0.00147662,
        "meta_inclination": 82.5649,
        "meta_ra_of_asc_node": 65.1671,
        "meta_arg_of_pericenter": 233.9389,
        "meta_mean_anomaly": 126.0493,
        "meta_ephemeris_type": 0,
        "meta_classification_type": "U",
        "meta_norad_cat_id": 50032,
        "meta_element_set_no": 999,
        "meta_rev_at_epoch": 22503,
        "meta_bstar": 0.00018639408,
        "meta_mean_motion_dot": 9.041e-05,
        "meta_mean_motion_ddot": 0,
        "tle_line1": "1 50032U 82092RU  25340.24289431  .00009041  00000+0  18639-3 0  9991",
        "tle_line2": "2 50032  82.5649  65.1671 0014766 233.9389 126.0493 15.45595735225039"
      },
      "geometry": {
        "type": "Point",
        "coordinates": [
          -123.17959088588522,
          46.070591532796485
        ]
      }
    },
    {
      "type": "Feature",
      "properties": {
        "norad_id": 50058,
        "name": "COSMOS 1408 DEB",
        "group": "cosmos-1408-debris",
        "lat": -53.400329347308826,
        "lon": 65.51156380254561,
        "alt_km": 395.2917182516021,
        "timestamp": "2025-12-06T18:50:10.438962+00:00",
        "meta_object_name": "COSMOS 1408 DEB",
        "meta_object_id": "1982-092SW",
        "meta_epoch": "2025-12-06T03:42:28.069056",
        "meta_mean_motion": 15.63525436,
        "meta_eccentricity": 0.00162546,
        "meta_inclination": 82.6137,
        "meta_ra_of_asc_node": 76.2308,
        "meta_arg_of_pericenter": 122.1588,
        "meta_mean_anomaly": 238.125,
        "meta_ephemeris_type": 0,
        "meta_classification_type": "U",
        "meta_norad_cat_id": 50058,
        "meta_element_set_no": 999,
        "meta_rev_at_epoch": 22701,
        "meta_bstar": 0.00049335108,
        "meta_mean_motion_dot": 0.00046144,
        "meta_mean_motion_ddot": 0,
        "tle_line1": "1 50058U 82092SW  25340.15449154  .00046144  00000+0  49335-3 0  9991",
        "tle_line2": "2 50058  82.6137  76.2308 0016254 122.1588 238.1250 15.63525436227011"
      },
      "geometry": {
        "type": "Point",
        "coordinates": [
          65.51156380254561,
          -53.400329347308826
        ]
      }
    },
    {
      "type": "Feature",
      "properties": {
        "norad_id": 50404,
        "name": "COSMOS 1408 DEB",
        "group": "cosmos-1408-debris",
        "lat": 59.11287986524084,
        "lon": -125.63652114725575,
        "alt_km": 635.2492345100691,
        "timestamp": "2025-12-06T18:50:10.438976+00:00",
        "meta_object_name": "COSMOS 1408 DEB",
        "meta_object_id": "1982-092ADS",
        "meta_epoch": "2025-12-06T02:41:05.955072",
        "meta_mean_motion": 15.12434812,
        "meta_eccentricity": 0.01747261,
        "meta_inclination": 82.2047,
        "meta_ra_of_asc_node": 221.8118,
        "meta_arg_of_pericenter": 221.7921,
        "meta_mean_anomaly": 136.9859,
        "meta_ephemeris_type": 0,
        "meta_classification_type": "U",
        "meta_norad_cat_id": 50404,
        "meta_element_set_no": 999,
        "meta_rev_at_epoch": 21093,
        "meta_bstar": 0.0038004271,
        "meta_mean_motion_dot": 0.00097112,
        "meta_mean_motion_ddot": 0,
        "tle_line1": "1 50404U 82092ADS 25340.11187448  .00097112  00000+0  38004-2 0  9998",
        "tle_line2": "2 50404  82.2047 221.8118 0174726 221.7921 136.9859 15.12434812210939"
      },
      "geometry": {
        "type": "Point",
        "coordinates": [
          -125.63652114725575,
          59.11287986524084
        ]
      }
    },
    {
      "type": "Feature",
      "properties": {
        "norad_id": 50621,
        "name": "COSMOS 1408 DEB",
        "group": "cosmos-1408-debris",
        "lat": 58.49866492081957,
        "lon": -111.91278194830245,
        "alt_km": 381.51309604617927,
        "timestamp": "2025-12-06T18:50:10.438987+00:00",
        "meta_object_name": "COSMOS 1408 DEB",
        "meta_object_id": "1982-092ALR",
        "meta_epoch": "2025-12-06T05:58:21.140256",
        "meta_mean_motion": 15.56160395,
        "meta_eccentricity": 0.00287722,
        "meta_inclination": 82.5723,
        "meta_ra_of_asc_node": 80.9361,
        "meta_arg_of_pericenter": 176.4358,
        "meta_mean_anomaly": 183.7108,
        "meta_ephemeris_type": 0,
        "meta_classification_type": "U",
        "meta_norad_cat_id": 50621,
        "meta_element_set_no": 999,
        "meta_rev_at_epoch": 22149,
        "meta_bstar": 0.00059401028,
        "meta_mean_motion_dot": 0.00042512,
        "meta_mean_motion_ddot": 0,
        "tle_line1": "1 50621U 82092ALR 25340.24885579  .00042512  00000+0  59401-3 0  9992",
        "tle_line2": "2 50621  82.5723  80.9361 0028772 176.4358 183.7108 15.56160395221497"
      },
      "geometry": {
        "type": "Point",
        "coordinates": [
          -111.91278194830245,
          58.49866492081957
        ]
      }
    }
  ]
}